[
    {
        "Altitude(m)": 624790.8182555937,
        "Argument of Periapsis(deg)": 0.0,
        "Eccentricity": 0.0,
        "Inclination(deg)": 60.0,
        "Latitude(deg)": -59.14718590620392,
        "Longitude(deg)": -148.96554095741,
        "Mean Anomaly(deg)": 278.1818,
        "RAAN(deg)": 25.0,
        "Satellite Name": "Test1 127",
        "Satellite Number": 127,
        "Semi-Major Axis(m)": 6980739.136638005,
        "Time(s)": 0
    },
    {
        "Altitude(m)": 624737.4739556034,
        "Argument of Periapsis(deg)": 0.00010418945913296404,
        "Eccentricity": 0.0,
        "Inclination(deg)": 60.0,
        "Latitude(deg)": -58.994642759064234,
        "Longitude(deg)": -147.84603573100836,
        "Mean Anomaly(deg)": 278.8019061454618,
        "RAAN(deg)": 24.99957995086026,
        "Satellite Name": "Test1 127",
        "Satellite Number": 127,
        "Semi-Major Axis(m)": 6980739.136638005,
        "Time(s)": 10
    }
]